METAR EGMJ 280925Z AUTO 21009G19KT 060V130 5000 -RA FEW007 BKN014CB BKN017 02/M01 Q1001 BECMG 6000
METAR EGMJ 280925Z AUTO 21009G19KT 060V130 5000 -RA FEW007 BKN014CB BKN017 02/M01 A1001 BECMG 6000
EGSC 251650Z 09006KT 060V120 CAVOK 16/03 Q1031
EGGW 230820Z AUTO VRB02KT 4900 HZ NCD 11/07 Q1030
EGSS 230820Z AUTO VRB01KT 4700 HZ NCD 11/07 Q1030
EGCC 230820Z AUTO 10003KT 360V170 9999 NCD 12/05 Q1030 NOSIG
EGPD 230820Z AUTO VRB02KT 2700 HZ NCD 08/06 Q1030 TEMPO 4000
METAR EGPD 230850Z AUTO VRB02KT 4000 HZ NCD 09/06 Q1030 TEMPO 6000
EGPD 240750Z AUTO VRB02KT 9999 BKN049 05/03 Q1027 NOSIG
EGGW 240820Z AUTO VRB02KT 8000 NCD 11/05 Q1030
EGSS 240820Z AUTO 29001KT 3900 HZ NCD 10/05 Q1030
EGCC 240820Z AUTO VRB01KT 9999 NCD 09/04 Q1030 NOSIG
EGCC 250850Z AUTO VRB02KT 9999 NCD 11/03 Q1033
EGGW 250850Z AUTO 03006KT 350V090 9000 NCD 10/04 Q1032
METAR EGMJ 280925Z AUTO 21009G19KT 060V130 5000 -RAHZ FEW007 BKN014CB BKN017 02/M01 A1001 BECMG 6000
EGSC 251355Z 09006KT 060V120 CAVOK 16/03 Q1031
EGSS 270650Z AUTO 05006KT 0550 R04/0900N FG VV// 07/06 Q1033
EGUN 270656Z 06006KT 2000 BR BCFG OVC003 07/07 A3051 RMK AO2A SLP335 T00730072
EGVO 270659Z AUTO 06005KT 1800 BR OVC002 07/07 M RMK AO2 SLPNO $
EGLC 270720Z AUTO 05005KT 010V080 0750 R09/0900N FG OVC002 CAVOK 07/07 Q1033
X0RQ 270653Z AUTO 07009KT 105M CLR M08/M12 A3032 RMK A02 SLP287 T10781117
EGPD 270720Z AUTO VRB01KT 0400 R34/P1500N FG VV/// 04/04 Q1033 TEMPO 0800
EGGW 310720Z 35014KT 3500 -SN OVC006 00/M01 Q1007 RESG
EGLL 301220Z 24015KT 200V280 8000 -RA FEW010 BKN025 18/15 Q0983 TEMPO 3000 RA BKN008 OVC020=
EGPZ 301220Z 30025G37KT 270V360 6000 +SHSN SCT005 BKN010CB 03/M01 Q0999 RETS BECMG AT1300 NSW SCT015=
EGPZ 301220Z 30025G37KT 270V360 6000 1200NE +SHSN SCT005 BKN010CB 03/M01 Q0999 RETS BECMG AT1300 NSW SCT015=